[{"OBJECT_NAME":"STARLINK-32559","OBJECT_ID":"2024-207D","EPOCH":"2026-03-09T22:38:56.289984","MEAN_MOTION":15.27608664,"ECCENTRICITY":0.00021124,"INCLINATION":42.9974,"RA_OF_ASC_NODE":280.0749,"ARG_OF_PERICENTER":40.4173,"MEAN_ANOMALY":319.6835,"EPHEMERIS_TYPE":0,"CLASSIFICATION_TYPE":"U","NORAD_CAT_ID":61915,"ELEMENT_SET_NO":999,"REV_AT_EPOCH":7476,"BSTAR":0.00090887555,"MEAN_MOTION_DOT":0.00024855,"MEAN_MOTION_DDOT":0},{"OBJECT_NAME":"GEOSCAN 2 (RS92S2)","OBJECT_ID":"2025-155Q","EPOCH":"2026-03-09T23:01:48.939744","MEAN_MOTION":15.28709337,"ECCENTRICITY":0.00085277,"INCLINATION":97.4463,"RA_OF_ASC_NODE":37.5259,"ARG_OF_PERICENTER":140.9505,"MEAN_ANOMALY":219.2352,"EPHEMERIS_TYPE":0,"CLASSIFICATION_TYPE":"U","NORAD_CAT_ID":64890,"ELEMENT_SET_NO":999,"REV_AT_EPOCH":6561,"BSTAR":0.00051551761,"MEAN_MOTION_DOT":0.00014341,"MEAN_MOTION_DDOT":0}]
